GYM Name,Address,Area,City,State,Phone Number,Timings
"Yhai Ahmedabad
Call","Ellis Bridge, Ahmedabad",Ellis Bridge,Ahmedabad,Gujarat,N/A,N/A
"B1 Crossfit
Call","Ellis Bridge, Ahmedabad",Ellis Bridge,Ahmedabad,Gujarat,N/A,N/A
C.N Ethletic Acadamy,"Ellis Bridge, Ahmedabad",Ellis Bridge,Ahmedabad,Gujarat,N/A,N/A
"Easy Burn
Call","Ellis Bridge, Ahmedabad",Ellis Bridge,Ahmedabad,Gujarat,N/A,N/A
"Namah Merchandise Private Limited
Call","Ellis Bridge, Ahmedabad",Ellis Bridge,Ahmedabad,Gujarat,N/A,N/A
"Sahil Davda
Call","Ellis Bridge, Ahmedabad",Ellis Bridge,Ahmedabad,Gujarat,N/A,N/A
U C O Bank Regional Training Centre,"Khanpur, Ahmedabad",Khanpur,Ahmedabad,Gujarat,N/A,N/A
"Yhai
Call","Lal Darwaja, Ahmedabad",Lal Darwaja,Ahmedabad,Gujarat,N/A,N/A
"Anytime Fitness
Call","Lal Darwaja, Ahmedabad",Lal Darwaja,Ahmedabad,Gujarat,N/A,N/A
Vo2 + Fitness,"Khanpur, Ahmedabad",Khanpur,Ahmedabad,Gujarat,N/A,N/A
"Mavericks Club
Call","Paldi, Ahmedabad",Paldi,Ahmedabad,Gujarat,N/A,N/A
"Shivhari Astro - Reiki Centre
Call","Ellis Bridge, Ahmedabad",Ellis Bridge,Ahmedabad,Gujarat,N/A,N/A
"Suraksha Maharaja
Call","C G Road, Ahmedabad",C G Road,Ahmedabad,Gujarat,N/A,N/A
"Ellisbridge Arogya Samiti
Call","Ellis Bridge, Ahmedabad",Ellis Bridge,Ahmedabad,Gujarat,N/A,N/A
"Vasant Vyaym Shala
Call","Lal Darwaja, Ahmedabad",Lal Darwaja,Ahmedabad,Gujarat,N/A,N/A
GROW Center,"Lal Darwaja, Ahmedabad",Lal Darwaja,Ahmedabad,Gujarat,N/A,N/A
Pro Fitness Ellis Bridge,"Ellis Bridge, Ahmedabad",Ellis Bridge,Ahmedabad,Gujarat,N/A,N/A
"Parsana Gym
Call","Ellis Bridge, Ahmedabad",Ellis Bridge,Ahmedabad,Gujarat,N/A,N/A
Parsana Fitness & Gym,"Lal Darwaja, Ahmedabad",Lal Darwaja,Ahmedabad,Gujarat,N/A,N/A
RIYAZ BAG,"Lal Darwaja, Ahmedabad",Lal Darwaja,Ahmedabad,Gujarat,N/A,N/A
"Vr Fitness Gym
Call","Paldi, Ahmedabad",Paldi,Ahmedabad,Gujarat,N/A,N/A
"Charyana Fitness Gym
Call","Lal Darwaja, Ahmedabad",Lal Darwaja,Ahmedabad,Gujarat,N/A,N/A
"Fitness Solutions
Call","Lal Darwaja, Ahmedabad",Lal Darwaja,Ahmedabad,Gujarat,N/A,N/A
"Body Challenge Health Club
Call","Lal Darwaja, Ahmedabad",Lal Darwaja,Ahmedabad,Gujarat,N/A,N/A
Y.M.Fitness Studio,"Lal Darwaja, Ahmedabad",Lal Darwaja,Ahmedabad,Gujarat,N/A,N/A
"Ellisbridge Gymkhana
Call","Ellis Bridge, Ahmedabad",Ellis Bridge,Ahmedabad,Gujarat,N/A,N/A
"Sfw The Gym Paldi
Call","Paldi, Ahmedabad",Paldi,Ahmedabad,Gujarat,N/A,N/A
Ym Fitness Studio,"Lal Darwaja, Ahmedabad",Lal Darwaja,Ahmedabad,Gujarat,N/A,N/A
Body Care Gym & Health Center,"Gheekanta, Ahmedabad",Gheekanta,Ahmedabad,Gujarat,N/A,N/A
"Herbalife Wellness Coach
Call","Navrangpura, Ahmedabad",Navrangpura,Ahmedabad,Gujarat,N/A,N/A
"Silverline Surgical
Call","Lal Darwaja, Ahmedabad",Lal Darwaja,Ahmedabad,Gujarat,N/A,N/A
Sports Plaza,"Patthar Kuva, Ahmedabad",Patthar Kuva,Ahmedabad,Gujarat,N/A,N/A
"The Fitt Wave
Call","C G Road, Ahmedabad",C G Road,Ahmedabad,Gujarat,N/A,N/A
"Parsi Gymkhana
Call","Lal Darwaja, Ahmedabad",Lal Darwaja,Ahmedabad,Gujarat,N/A,N/A
"The Fitness Culture
Call","Ambavadi, Ahmedabad",Ambavadi,Ahmedabad,Gujarat,N/A,N/A
"Ptfinder
Call","Bhadra, Ahmedabad",Bhadra,Ahmedabad,Gujarat,N/A,N/A
"Central Govt Health Scheme
Call","Navrangpura, Ahmedabad",Navrangpura,Ahmedabad,Gujarat,N/A,N/A
Revo International Llp,"Mithakhali, Ahmedabad",Mithakhali,Ahmedabad,Gujarat,N/A,N/A
"Optimus Health And Fitness
Call","Paldi, Ahmedabad",Paldi,Ahmedabad,Gujarat,N/A,N/A
Saga Fitness,"Ambavadi, Ahmedabad",Ambavadi,Ahmedabad,Gujarat,N/A,N/A
Fitness Factory Gym,"Gheekanta, Ahmedabad",Gheekanta,Ahmedabad,Gujarat,N/A,N/A
"Stanmark Healthcare Private Limited
Call","C G Road, Ahmedabad",C G Road,Ahmedabad,Gujarat,N/A,N/A
"Fusion
Call","C G Road, Ahmedabad",C G Road,Ahmedabad,Gujarat,N/A,N/A
"Aashus Wellness
Call","Navrangpura, Ahmedabad",Navrangpura,Ahmedabad,Gujarat,N/A,N/A
"Careerxone.Com
Call","C G Road, Ahmedabad",C G Road,Ahmedabad,Gujarat,N/A,N/A
"Kfa Fitness Studio
Call","Paldi, Ahmedabad",Paldi,Ahmedabad,Gujarat,N/A,N/A
"Proline Fitness
Call","C G Road, Ahmedabad",C G Road,Ahmedabad,Gujarat,N/A,N/A
Black Rhino Fitness,"Paldi, Ahmedabad",Paldi,Ahmedabad,Gujarat,N/A,N/A
Yogi Fitness Zone And Gym,"Paldi, Ahmedabad",Paldi,Ahmedabad,Gujarat,N/A,N/A
True Fitness Gym,"Patthar Kuva, Ahmedabad",Patthar Kuva,Ahmedabad,Gujarat,N/A,N/A
Star Fitness Point,"Ambavadi, Ahmedabad",Ambavadi,Ahmedabad,Gujarat,N/A,N/A
Shri Rang Milan Kala Mandal,"Shahpur, Ahmedabad",Shahpur,Ahmedabad,Gujarat,N/A,N/A
"It Figures/Figrate
Call","Shahpur, Ahmedabad",Shahpur,Ahmedabad,Gujarat,N/A,N/A
Herbalife Wellness Coach For Weight Losss Weght Gain And Mainten For Health,"Behrampura, Ahmedabad",Behrampura,Ahmedabad,Gujarat,N/A,N/A
"Priyal Health Care
Call","Paldi, Ahmedabad",Paldi,Ahmedabad,Gujarat,N/A,N/A
"Vidyadharbhai Vyas
Call","Paldi, Ahmedabad",Paldi,Ahmedabad,Gujarat,N/A,N/A
"Re Create
Call","Paldi, Ahmedabad",Paldi,Ahmedabad,Gujarat,N/A,N/A
"Figuratte Fitness Centre
Call","Navrangpura, Ahmedabad",Navrangpura,Ahmedabad,Gujarat,N/A,N/A
"Integrated Health Clinic
Call","Navrangpura, Ahmedabad",Navrangpura,Ahmedabad,Gujarat,N/A,N/A
Happiestfitness.Com,"Ambavadi, Ahmedabad",Ambavadi,Ahmedabad,Gujarat,N/A,N/A
Vipassana Ahmedabad Office,"Navrangpura, Ahmedabad",Navrangpura,Ahmedabad,Gujarat,N/A,N/A
Rita's Pregnancy 101,"Paldi, Ahmedabad",Paldi,Ahmedabad,Gujarat,N/A,N/A
"Vanitarama Healthplus
Call","Navrangpura, Ahmedabad",Navrangpura,Ahmedabad,Gujarat,N/A,N/A
"Vanitarama Health Plus
Call","Navrangpura, Ahmedabad",Navrangpura,Ahmedabad,Gujarat,N/A,N/A
"Government Gym
Call","C G Road, Ahmedabad",C G Road,Ahmedabad,Gujarat,N/A,N/A
Nishka Apartement,"Gulbai Tekra, Ahmedabad",Gulbai Tekra,Ahmedabad,Gujarat,N/A,N/A
Ezeeslim Fitness Health Centre,"Gulbai Tekra, Ahmedabad",Gulbai Tekra,Ahmedabad,Gujarat,N/A,N/A
Kalalayam Nartan Academy,"Sharda Nagar, Ahmedabad",Sharda Nagar,Ahmedabad,Gujarat,N/A,N/A
Body Carpenter Gym,"Navrangpura, Ahmedabad",Navrangpura,Ahmedabad,Gujarat,N/A,N/A
"The Pilates Studio
Call","Navrangpura, Ahmedabad",Navrangpura,Ahmedabad,Gujarat,N/A,N/A
"Afa Gym
Call","Shahpur, Ahmedabad",Shahpur,Ahmedabad,Gujarat,N/A,N/A
"Ujas Apartment
Call","Paldi, Ahmedabad",Paldi,Ahmedabad,Gujarat,N/A,N/A
The Fitness Fuel,"Gulbai Tekra, Ahmedabad",Gulbai Tekra,Ahmedabad,Gujarat,N/A,N/A
"The Club Gym
Call","Paldi, Ahmedabad",Paldi,Ahmedabad,Gujarat,N/A,N/A
Life Fitness Gym - Paldi,"Paldi, Ahmedabad",Paldi,Ahmedabad,Gujarat,N/A,N/A
Yoga Center,"Paldi, Ahmedabad",Paldi,Ahmedabad,Gujarat,N/A,N/A
Riverfront Cycle Stand,"Ashram Road, Ahmedabad",Ashram Road,Ahmedabad,Gujarat,N/A,N/A
"Universal Health Club
Call","Jamalpur, Ahmedabad",Jamalpur,Ahmedabad,Gujarat,N/A,N/A
"Ronaldo Fitness
Call","Navrangpura, Ahmedabad",Navrangpura,Ahmedabad,Gujarat,N/A,N/A
"Vala S Health Centre And Gym
Call","Navrangpura, Ahmedabad",Navrangpura,Ahmedabad,Gujarat,N/A,N/A
"Zeus Fitness Point
Call","Navrangpura, Ahmedabad",Navrangpura,Ahmedabad,Gujarat,N/A,N/A
"Figure Line Gym & Health Centre
Call","Navrangpura, Ahmedabad",Navrangpura,Ahmedabad,Gujarat,N/A,N/A
Anytime Fitness,"Navrangpura, Ahmedabad",Navrangpura,Ahmedabad,Gujarat,N/A,N/A
Gym Nxt Generation,"Navrangpura, Ahmedabad",Navrangpura,Ahmedabad,Gujarat,N/A,N/A
"Reiki Centre Anjaliben
Call","Paldi, Ahmedabad",Paldi,Ahmedabad,Gujarat,N/A,N/A
R.K. Sports & Co.,"Shahpur, Ahmedabad",Shahpur,Ahmedabad,Gujarat,N/A,N/A
Amc Gym,"Navrangpura, Ahmedabad",Navrangpura,Ahmedabad,Gujarat,N/A,N/A
Ami's It Figures Fast Fun Fitness,"Ambavadi, Ahmedabad",Ambavadi,Ahmedabad,Gujarat,N/A,N/A
"Flexcurve
Call","Ambavadi, Ahmedabad",Ambavadi,Ahmedabad,Gujarat,N/A,N/A
"Indo Power Control
Call","Manek Chowk, Ahmedabad",Manek Chowk,Ahmedabad,Gujarat,N/A,N/A
Sardar Patel Stadium Vyayam Shala,"Navrangpura, Ahmedabad",Navrangpura,Ahmedabad,Gujarat,N/A,N/A
Sardar Patel Municipalty Gym,"Navrangpura, Ahmedabad",Navrangpura,Ahmedabad,Gujarat,N/A,N/A
"Ms Cycle Works And Stores
Call","Relief Road, Ahmedabad",Relief Road,Ahmedabad,Gujarat,N/A,N/A
Jaymik Traders,"Ratan Pol, Ahmedabad",Ratan Pol,Ahmedabad,Gujarat,N/A,N/A
Shivam Sales,"Manek Chowk, Ahmedabad",Manek Chowk,Ahmedabad,Gujarat,N/A,N/A
"Ashok Malam Patti
Call","Jamalpur, Ahmedabad",Jamalpur,Ahmedabad,Gujarat,N/A,N/A
"Monopol Hair Stylist And Wig Vig Specialist
Call","Usmanpura, Ahmedabad",Usmanpura,Ahmedabad,Gujarat,N/A,N/A
"Modi's Wellness Center
Call","Manek Chowk, Ahmedabad",Manek Chowk,Ahmedabad,Gujarat,N/A,N/A
"Wellness Space
Call","Navrangpura, Ahmedabad",Navrangpura,Ahmedabad,Gujarat,N/A,N/A
"Ezeeslim
Call","Paldi, Ahmedabad",Paldi,Ahmedabad,Gujarat,N/A,N/A
"Maitri Nutrition Center
Call","Paldi, Ahmedabad",Paldi,Ahmedabad,Gujarat,N/A,N/A
Ceragem Paldi Krishna,"Paldi, Ahmedabad",Paldi,Ahmedabad,Gujarat,N/A,N/A
Infinity Avengers Gym,"Bhatta, Ahmedabad",Bhatta,Ahmedabad,Gujarat,N/A,N/A
Fitness Gym,"Gita Mandir, Ahmedabad",Gita Mandir,Ahmedabad,Gujarat,N/A,N/A
"Ganga Spa
Call","Navrangpura, Ahmedabad",Navrangpura,Ahmedabad,Gujarat,N/A,N/A
Infinity Avengers Gym Pvt.Ltd,"Ambawadi, Ahmedabad",Ambawadi,Ahmedabad,Gujarat,N/A,N/A
Municipal Arogya Bhavan,"Astodia, Ahmedabad",Astodia,Ahmedabad,Gujarat,N/A,N/A
"Bodycare Health Centre
Call","Paldi, Ahmedabad",Paldi,Ahmedabad,Gujarat,N/A,N/A
"Ld & M.G. Science Gym Khana
Call","Navrangpura, Ahmedabad",Navrangpura,Ahmedabad,Gujarat,N/A,N/A
"First Flight Courier Limited
Call","Shahpur, Ahmedabad",Shahpur,Ahmedabad,Gujarat,N/A,N/A
Saga Fitness 2.0,"Navrangpura, Ahmedabad",Navrangpura,Ahmedabad,Gujarat,N/A,N/A
7 Star Gym,"Navrangpura, Ahmedabad",Navrangpura,Ahmedabad,Gujarat,N/A,N/A
River Front Walkway Staircase No 15,"Tavdipura, Ahmedabad",Tavdipura,Ahmedabad,Gujarat,N/A,N/A
Hindu Samrajya Sena Sanchalit Vyayam Shala,"Ashram Road, Ahmedabad",Ashram Road,Ahmedabad,Gujarat,N/A,N/A
Charly Health Club,"Jamalpur, Ahmedabad",Jamalpur,Ahmedabad,Gujarat,N/A,N/A
"Shree Tirth Wellness
Call","Navrangpura, Ahmedabad",Navrangpura,Ahmedabad,Gujarat,N/A,N/A
Youthtown Fitness Centre,"Paldi, Ahmedabad",Paldi,Ahmedabad,Gujarat,N/A,N/A
Parlour,"Navrangpura, Ahmedabad",Navrangpura,Ahmedabad,Gujarat,N/A,N/A
Sfw The Gym,"Vasna, Ahmedabad",Vasna,Ahmedabad,Gujarat,N/A,N/A
Silver Life Health Centre,"Ambavadi, Ahmedabad",Ambavadi,Ahmedabad,Gujarat,N/A,N/A
"Shakti Provision Stores
Call","Ambavadi, Ahmedabad",Ambavadi,Ahmedabad,Gujarat,N/A,N/A
Health Plus Gym,"Usmanpura, Ahmedabad",Usmanpura,Ahmedabad,Gujarat,N/A,N/A
"Youthtown Gym
Call","Paldi, Ahmedabad",Paldi,Ahmedabad,Gujarat,N/A,N/A
Gujarat Sports,"Gulbai Tekra, Ahmedabad",Gulbai Tekra,Ahmedabad,Gujarat,N/A,N/A
"Healthvision Pvt Ltd
Call","Ashram Road, Ahmedabad",Ashram Road,Ahmedabad,Gujarat,N/A,N/A
Darpana Academy,"Usmanpura, Ahmedabad",Usmanpura,Ahmedabad,Gujarat,N/A,N/A
"Life Fitness Point
Call","Gulbai Tekra, Ahmedabad",Gulbai Tekra,Ahmedabad,Gujarat,N/A,N/A
"Life Fitness Point Gym
Call","Gulbai Tekra, Ahmedabad",Gulbai Tekra,Ahmedabad,Gujarat,N/A,N/A
"Haji Amin Sadruddin Building
Call","Jamalpur, Ahmedabad",Jamalpur,Ahmedabad,Gujarat,N/A,N/A
"Life Fitness Point
Call","Navrangpura, Ahmedabad",Navrangpura,Ahmedabad,Gujarat,N/A,N/A
A-One Fitness,"Dani Limda, Ahmedabad",Dani Limda,Ahmedabad,Gujarat,N/A,N/A
"The Fitness Clinic
Call","Navrangpura, Ahmedabad",Navrangpura,Ahmedabad,Gujarat,N/A,N/A
Fitformance,"Gulbai Tekra, Ahmedabad",Gulbai Tekra,Ahmedabad,Gujarat,N/A,N/A
"Bodyline Health Club
Call","Navrangpura, Ahmedabad",Navrangpura,Ahmedabad,Gujarat,N/A,N/A
Ultimate Fitness Club(Ufc),"Ambawadi, Ahmedabad",Ambawadi,Ahmedabad,Gujarat,N/A,N/A
Diet Clinic,"Madhupura, Ahmedabad",Madhupura,Ahmedabad,Gujarat,N/A,N/A
Figure Maker Gym And Fitness Club,"Isanpur, Ahmedabad",Isanpur,Ahmedabad,Gujarat,N/A,N/A
Figure Maker Gym,"Jamalpur, Ahmedabad",Jamalpur,Ahmedabad,Gujarat,N/A,N/A
Kratos The Gym,"Navjivan, Ahmedabad",Navjivan,Ahmedabad,Gujarat,N/A,N/A
Wasna Gym,"Vasna, Ahmedabad",Vasna,Ahmedabad,Gujarat,N/A,N/A
Talwalkars,"Navrangpura, Ahmedabad",Navrangpura,Ahmedabad,Gujarat,N/A,N/A
Sabbir Gym Trainer,"Navrangpura, Ahmedabad",Navrangpura,Ahmedabad,Gujarat,N/A,N/A
Mission Health,"Vasna, Ahmedabad",Vasna,Ahmedabad,Gujarat,N/A,N/A
Fortune Sports,"Kalupur, Ahmedabad",Kalupur,Ahmedabad,Gujarat,N/A,N/A
Perfect Gym,"Ambavadi, Ahmedabad",Ambavadi,Ahmedabad,Gujarat,N/A,N/A
Ultra Fitness Gym,"Paldi, Ahmedabad",Paldi,Ahmedabad,Gujarat,N/A,N/A
"Om Physiotherapy Clinic And Fitness Center
Call","Navrangpura, Ahmedabad",Navrangpura,Ahmedabad,Gujarat,N/A,N/A
Youthtown Fitness Centre,"Ayojan Nagar, Ahmedabad",Ayojan Nagar,Ahmedabad,Gujarat,N/A,N/A
D-Tox Spa,"Dudheshwar, Ahmedabad",Dudheshwar,Ahmedabad,Gujarat,N/A,N/A
"Parv's Ar Fitness Centre
Call","Shahibagh, Ahmedabad",Shahibagh,Ahmedabad,Gujarat,N/A,N/A
Eka Life,"Gita Mandir, Ahmedabad",Gita Mandir,Ahmedabad,Gujarat,N/A,N/A
Vyayam Shala,"Kankaria, Ahmedabad",Kankaria,Ahmedabad,Gujarat,N/A,N/A
45 Minutes Fitness,"Dudheshwar, Ahmedabad",Dudheshwar,Ahmedabad,Gujarat,N/A,N/A
"Orange Fitness
Call","Navrangpura, Ahmedabad",Navrangpura,Ahmedabad,Gujarat,N/A,N/A
"The Cycle Street
Call","Navrangpura, Ahmedabad",Navrangpura,Ahmedabad,Gujarat,N/A,N/A
Pro Fitness Memnagar,"Memnagar, Ahmedabad",Memnagar,Ahmedabad,Gujarat,N/A,N/A
"Fitness Hub
Call","Ambavadi, Ahmedabad",Ambavadi,Ahmedabad,Gujarat,N/A,N/A
Kankaria Vyayam Sala,"Kankaria, Ahmedabad",Kankaria,Ahmedabad,Gujarat,N/A,N/A
"Weight Loss Center
Call","Navrangpura, Ahmedabad",Navrangpura,Ahmedabad,Gujarat,N/A,N/A
Professors' Colony,"Navrangpura, Ahmedabad",Navrangpura,Ahmedabad,Gujarat,N/A,N/A
Parsana Fitness & Gym,"Navrangpura, Ahmedabad",Navrangpura,Ahmedabad,Gujarat,N/A,N/A
Parsana Fitness & Gym,"Ambavadi, Ahmedabad",Ambavadi,Ahmedabad,Gujarat,N/A,N/A
Fitness Mark Health Club,"Ashram Road, Ahmedabad",Ashram Road,Ahmedabad,Gujarat,N/A,N/A
"Sawajraj Gym
Call","Kankaria, Ahmedabad",Kankaria,Ahmedabad,Gujarat,N/A,N/A
Fitness Home,"Vastrapur, Ahmedabad",Vastrapur,Ahmedabad,Gujarat,N/A,N/A
Fitness Battalion The Gym,"Kankaria, Ahmedabad",Kankaria,Ahmedabad,Gujarat,N/A,N/A
Club One Fitness Gym,"Maninagar, Ahmedabad",Maninagar,Ahmedabad,Gujarat,N/A,N/A
Rockstar Gym,"Shah E Alam Roja, Ahmedabad",Shah E Alam Roja,Ahmedabad,Gujarat,N/A,N/A
